[{"OBJECT_NAME":"STARLINK-32855","OBJECT_ID":"2025-018H","EPOCH":"2026-03-09T21:26:08.431296","MEAN_MOTION":15.30217575,"ECCENTRICITY":0.00012194,"INCLINATION":53.157,"RA_OF_ASC_NODE":308.3608,"ARG_OF_PERICENTER":121.6526,"MEAN_ANOMALY":238.4594,"EPHEMERIS_TYPE":0,"CLASSIFICATION_TYPE":"U","NORAD_CAT_ID":62813,"ELEMENT_SET_NO":999,"REV_AT_EPOCH":6320,"BSTAR":0.001039073,"MEAN_MOTION_DOT":0.00030559,"MEAN_MOTION_DDOT":0},{"OBJECT_NAME":"SCS-01 J","OBJECT_ID":"2025-100J","EPOCH":"2026-03-09T22:31:25.904064","MEAN_MOTION":15.31338011,"ECCENTRICITY":0.00063909,"INCLINATION":97.3693,"RA_OF_ASC_NODE":145.4824,"ARG_OF_PERICENTER":272.025,"MEAN_ANOMALY":88.026,"EPHEMERIS_TYPE":0,"CLASSIFICATION_TYPE":"U","NORAD_CAT_ID":63990,"ELEMENT_SET_NO":999,"REV_AT_EPOCH":4563,"BSTAR":0.0011832888,"MEAN_MOTION_DOT":0.00035886,"MEAN_MOTION_DDOT":0}]
